CCSDS_OMM_VERS,COMMENT,CREATION_DATE,ORIGINATOR,OBJECT_NAME,OBJECT_ID,CENTER_NAME,REF_FRAME,TIME_SYSTEM,MEAN_ELEMENT_THEORY,EPOCH,MEAN_MOTION,ECCENTRICITY,INCLINATION,RA_OF_ASC_NODE,ARG_OF_PERICENTER,MEAN_ANOMALY,EPHEMERIS_TYPE,CLASSIFICATION_TYPE,NORAD_CAT_ID,ELEMENT_SET_NO,REV_AT_EPOCH,BSTAR,MEAN_MOTION_DOT,MEAN_MOTION_DDOT,SEMIMAJOR_AXIS,PERIOD,APOAPSIS,PERIAPSIS,OBJECT_TYPE,RCS_SIZE,COUNTRY_CODE,LAUNCH_DATE,SITE,DECAY_DATE,FILE,GP_ID,TLE_LINE0,TLE_LINE1,TLE_LINE2
"2.0","GENERATED VIA SPACE-TRACK.ORG API","2020-07-06T03:50:32","18 SPCS","ORBCOMM FM 30","1999-065A","EARTH","TEME","UTC","SGP4","2020-07-05T18:28:03.730368","14.32890779","0.00046110","45.0338","321.4597","2.9231","357.1642","0","U","25980","999","7498","0.00005021100000","-0.00000003","0.0000000000000","7160.221","100.496","785.387","778.784","PAYLOAD","MEDIUM","ORB","1999-12-04","AFETR","","2779942","157025501","0 ORBCOMM FM 30","1 25980U 99065A   20187.76948762 -.00000003 +00000-0 +50211-4 0  9997","2 25980 045.0338 321.4597 0004611 002.9231 357.1642 14.32890779074985"
"2.0","GENERATED VIA SPACE-TRACK.ORG API","2020-07-05T18:55:03","18 SPCS","ORBCOMM FM 30","1999-065A","EARTH","TEME","UTC","SGP4","2020-07-05T11:46:27.859872","14.32890704","0.00046340","45.0338","322.7702","1.5382","358.5479","0","U","25980","999","7494","0.00004834600000","-0.00000008","0.0000000000000","7160.221","100.496","785.404","778.768","PAYLOAD","MEDIUM","ORB","1999-12-04","AFETR","","2779738","156979342","0 ORBCOMM FM 30","1 25980U 99065A   20187.49060023 -.00000008 +00000-0 +48346-4 0  9993","2 25980 045.0338 322.7702 0004634 001.5382 358.5479 14.32890704074941"
"2.0","GENERATED VIA SPACE-TRACK.ORG API","2020-07-05T14:26:10","18 SPCS","ORBCOMM FM 30","1999-065A","EARTH","TEME","UTC","SGP4","2020-07-05T10:06:03.892032","14.32890693","0.00046440","45.0338","323.0978","1.1904","358.8953","0","U","25980","999","7546","0.00004869800000","-0.00000007","0.0000000000000","7160.221","100.496","785.411","778.761","PAYLOAD","MEDIUM","ORB","1999-12-04","AFETR","","2779594","156969027","0 ORBCOMM FM 30","1 25980U 99065A   20187.42087838 -.00000007  00000-0  48698-4 0  9998","2 25980  45.0338 323.0978 0004644   1.1904 358.8953 14.32890693 75462"
"2.0","GENERATED VIA SPACE-TRACK.ORG API","2020-07-05T14:16:09","18 SPCS","CZ-4 DEB","1999-057SK","EARTH","TEME","UTC","SGP4","2020-07-05T06:54:54.178848","14.46878225","0.01172520","98.7021","202.3373","132.3758","285.4786","0","U","35331","999","91975","0.00011974000000","0.00000422","0.0000000000000","7113.999","99.524","819.277","652.451","DEBRIS","SMALL","PRC","1999-10-14","TSC","","2779567","156968211","0 CZ-4 DEB","1 35331U 99057SK  20187.28812707  .00000422  00000-0  11974-3 0  9991","2 35331  98.7021 202.3373 0117252 132.3758 285.4786 14.46878225919759"
"2.0","GENERATED VIA SPACE-TRACK.ORG API","2020-07-05T01:46:44","18 SPCS","ORBCOMM FM 30","1999-065A","EARTH","TEME","UTC","SGP4","2020-07-04T19:02:28.185792","14.32890548","0.00047010","45.0339","326.0467","358.1888","1.8941","0","U","25980","999","7484","0.00004707800000","-0.00000011","0.0000000000000","7160.222","100.496","785.453","778.721","PAYLOAD","MEDIUM","ORB","1999-12-04","AFETR","","2779242","156949744","0 ORBCOMM FM 30","1 25980U 99065A   20186.79338178 -.00000011 +00000-0 +47078-4 0  9999","2 25980 045.0339 326.0467 0004701 358.1888 001.8941 14.32890548074841"
"2.0","GENERATED VIA SPACE-TRACK.ORG API","2020-07-04T17:33:47","18 SPCS","ORBCOMM FM 30","1999-065A","EARTH","TEME","UTC","SGP4","2020-07-04T12:20:52.310112","14.32890461","0.00047210","45.0339","327.3572","356.8679","3.2137","0","U","25980","999","7480","0.00004368700000","-0.00000020","0.0000000000000","7160.222","100.496","785.467","778.707","PAYLOAD","MEDIUM","ORB","1999-12-04","AFETR","","2779030","156902846","0 ORBCOMM FM 30","1 25980U 99065A   20186.51449433 -.00000020 +00000-0 +43687-4 0  9998","2 25980 045.0339 327.3572 0004721 356.8679 003.2137 14.32890461074800"
"2.0","GENERATED VIA SPACE-TRACK.ORG API","2020-07-04T17:33:47","18 SPCS","CZ-4 DEB","1999-057SK","EARTH","TEME","UTC","SGP4","2020-07-04T06:02:07.153152","14.46877206","0.01171890","98.7021","201.2718","135.4607","285.8255","0","U","35331","999","34183","0.00011977000000","0.00000422","0.0000000000000","7114.003","99.524","819.236","652.499","DEBRIS","SMALL","PRC","1999-10-14","TSC","","2779030","156910279","0 CZ-4 DEB","1 35331U 99057SK  20186.25147168 +.00000422 +00000-0 +11977-3 0  9992","2 35331 098.7021 201.2718 0117189 135.4607 285.8255 14.46877206341837"
"2.0","GENERATED VIA SPACE-TRACK.ORG API","2020-07-04T06:46:09","18 SPCS","ORBCOMM FM 30","1999-065A","EARTH","TEME","UTC","SGP4","2020-07-04T02:18:28.501344","14.32890319","0.00047670","45.0339","329.3232","354.8883","5.1915","0","U","25980","999","7527","0.00003903800000","-0.00000033","0.0000000000000","7160.222","100.496","785.501","778.674","PAYLOAD","MEDIUM","ORB","1999-12-04","AFETR","","2778661","156887752","0 ORBCOMM FM 30","1 25980U 99065A   20186.09616321 -.00000033  00000-0  39038-4 0  9992","2 25980  45.0339 329.3232 0004767 354.8883   5.1915 14.32890319 75279"
"2.0","GENERATED VIA SPACE-TRACK.ORG API","2020-07-04T02:24:26","18 SPCS","CZ-4 DEB","1999-057SK","EARTH","TEME","UTC","SGP4","2020-07-03T20:22:11.154144","14.46876851","0.01171570","98.7021","200.8580","136.6593","348.1091","0","U","35331","999","34177","0.00012095000000","0.00000427","0.0000000000000","7114.004","99.524","819.214","652.523","DEBRIS","SMALL","PRC","1999-10-14","TSC","","2778567","156879752","0 CZ-4 DEB","1 35331U 99057SK  20185.84874021 +.00000427 +00000-0 +12095-3 0  9998","2 35331 098.7021 200.8580 0117157 136.6593 348.1091 14.46876851341770"
"2.0","GENERATED VIA SPACE-TRACK.ORG API","2020-07-04T02:24:26","18 SPCS","ORBCOMM FM 30","1999-065A","EARTH","TEME","UTC","SGP4","2020-07-03T19:36:52.625664","14.32890258","0.00047870","45.0339","330.6338","353.5653","6.5132","0","U","25980","999","7470","0.00003887100000","-0.00000034","0.0000000000000","7160.223","100.496","785.515","778.660","PAYLOAD","MEDIUM","ORB","1999-12-04","AFETR","","2778567","156873577","0 ORBCOMM FM 30","1 25980U 99065A   20185.81727576 -.00000034 +00000-0 +38871-4 0  9991","2 25980 045.0339 330.6338 0004787 353.5653 006.5132 14.32890258074709"
"2.0","GENERATED VIA SPACE-TRACK.ORG API","2020-07-03T19:48:04","18 SPCS","CZ-4 DEB","1999-057SK","EARTH","TEME","UTC","SGP4","2020-07-03T06:47:07.078848","14.46876359","0.01171210","98.7021","200.2762","138.3449","279.8708","0","U","35331","999","34169","0.00012417000000","0.00000439","0.0000000000000","7114.006","99.524","819.190","652.551","DEBRIS","SMALL","PRC","1999-10-14","TSC","","2778389","156855133","0 CZ-4 DEB","1 35331U 99057SK  20185.28272082 +.00000439 +00000-0 +12417-3 0  9996","2 35331 098.7021 200.2762 0117121 138.3449 279.8708 14.46876359341695"
"2.0","GENERATED VIA SPACE-TRACK.ORG API","2020-07-03T19:48:04","18 SPCS","ORBCOMM FM 30","1999-065A","EARTH","TEME","UTC","SGP4","2020-07-03T02:52:52.925664","14.32890074","0.00048570","45.0340","333.9102","350.3547","9.7205","0","U","25980","999","7460","0.00003392300000","-0.00000047","0.0000000000000","7160.223","100.496","785.566","778.610","PAYLOAD","MEDIUM","ORB","1999-12-04","AFETR","","2778389","156849675","0 ORBCOMM FM 30","1 25980U 99065A   20185.12005701 -.00000047 +00000-0 +33923-4 0  9991","2 25980 045.0340 333.9102 0004857 350.3547 009.7205 14.32890074074602"
"2.0","GENERATED VIA SPACE-TRACK.ORG API","2020-07-03T03:32:50","18 SPCS","CZ-4 DEB","1999-057SK","EARTH","TEME","UTC","SGP4","2020-07-02T21:07:12.279936","14.46876021","0.01170900","98.7021","199.8624","139.5458","342.2257","0","U","35331","999","34163","0.00012658000000","0.00000449","0.0000000000000","7114.007","99.524","819.170","652.574","DEBRIS","SMALL","PRC","1999-10-14","TSC","","2777903","156821850","0 CZ-4 DEB","1 35331U 99057SK  20184.88000324 +.00000449 +00000-0 +12658-3 0  9997","2 35331 098.7021 199.8624 0117090 139.5458 342.2257 14.46876021341637"
"2.0","GENERATED VIA SPACE-TRACK.ORG API","2020-07-03T03:32:50","18 SPCS","ORBCOMM FM 30","1999-065A","EARTH","TEME","UTC","SGP4","2020-07-02T20:11:17.046528","14.32890003","0.00048780","45.0340","335.2207","349.0938","10.9802","0","U","25980","999","7456","0.00003367200000","-0.00000048","0.0000000000000","7160.223","100.496","785.581","778.596","PAYLOAD","MEDIUM","ORB","1999-12-04","AFETR","","2777903","156817882","0 ORBCOMM FM 30","1 25980U 99065A   20184.84116952 -.00000048 +00000-0 +33672-4 0  9992","2 25980 045.0340 335.2207 0004878 349.0938 010.9802 14.32890003074569"
"2.0","GENERATED VIA SPACE-TRACK.ORG API","2020-07-02T22:26:09","18 SPCS","CZ-4 DEB","1999-057SK","EARTH","TEME","UTC","SGP4","2020-07-02T19:42:04.623840","14.46875965","0.01170870","98.7021","199.8016","139.7224","34.3044","0","U","35331","999","91940","0.00012684000000","0.00000450","0.0000000000000","7114.007","99.524","819.168","652.576","DEBRIS","SMALL","PRC","1999-10-14","TSC","","2777829","156809513","0 CZ-4 DEB","1 35331U 99057SK  20184.82088685  .00000450  00000-0  12684-3 0  9998","2 35331  98.7021 199.8016 0117087 139.7224  34.3044 14.46875965919406"
"2.0","GENERATED VIA SPACE-TRACK.ORG API","2020-07-02T20:56:09","18 SPCS","ORBCOMM FM 30","1999-065A","EARTH","TEME","UTC","SGP4","2020-07-02T18:30:53.075232","14.32889992","0.00048840","45.0340","335.5484","348.7847","11.2890","0","U","25980","999","7508","0.00003379700000","-0.00000048","0.0000000000000","7160.223","100.496","785.586","778.591","PAYLOAD","MEDIUM","ORB","1999-12-04","AFETR","","2777638","156804479","0 ORBCOMM FM 30","1 25980U 99065A   20184.77144763 -.00000048  00000-0  33797-4 0  9993","2 25980  45.0340 335.5484 0004884 348.7847  11.2890 14.32889992 75085"
